H1 CPF 01  gfz 2021 03 28 01  5871 terrasarx 
H2 0702601  6201 31698    2021 03 28 00 59 42 2021 04 02 00 00 42   120 1 1  0 0 0
H9
10 0 59301   3582.000000  0   -1715094.586  -6670879.381   -163231.942
10 0 59301   3702.000000  0   -1876958.719  -6586441.848    740583.872
10 0 59301   3822.000000  0   -2003504.405  -6384347.296   1631360.198
10 0 59301   3942.000000  0   -2090488.220  -6068757.279   2493408.444
10 0 59301   4062.000000  0   -2134455.644  -5645906.782   3311546.892
10 0 59301   4182.000000  0   -2132836.594  -5123975.299   4071375.072
10 0 59301   4302.000000  0   -2084021.613  -4512920.783   4759531.249
10 0 59301   4422.000000  0   -1987417.611  -3824281.474   5363928.699
10 0 59301   4542.000000  0   -1843481.940  -3070948.603   5873967.675
10 0 59301   4662.000000  0   -1653732.580  -2266916.142   6280716.687
10 0 59301   4782.000000  0   -1420735.468  -1427015.829   6577062.620
10 0 59301   4902.000000  0   -1148070.498   -566640.085   6757829.627
10 0 59301   5022.000000  0    -840276.904    298542.134   6819862.993
10 0 59301   5142.000000  0    -502777.976   1152869.576   6762080.784
10 0 59301   5262.000000  0    -141785.361   1980971.808   6585492.117
10 0 59301   5382.000000  0     235815.127   2768045.517   6293180.483
10 0 59301   5502.000000  0     622593.845   3500119.052   5890253.033
10 0 59301   5622.000000  0    1010721.616   4164302.808   5383756.919
10 0 59301   5742.000000  0    1392126.247   4749020.577   4782561.957
10 0 59301   5862.000000  0    1758658.447   5244218.215   4097210.689
10 0 59301   5982.000000  0    2102263.901   5641543.524   3339738.510
10 0 59301   6102.000000  0    2415158.947   5934497.362   2523465.681
10 0 59301   6222.000000  0    2690003.175   6118549.535   1662759.989
10 0 59301   6342.000000  0    2920067.277   6191213.976    772778.323
10 0 59301   6462.000000  0    3099388.764   6152082.374   -130807.404
10 0 59301   6582.000000  0    3222914.217   6002816.832  -1032093.977
10 0 59301   6702.000000  0    3286623.931   5747100.346  -1915235.107
10 0 59301   6822.000000  0    3287635.411   5390547.686  -2764727.340
10 0 59301   6942.000000  0    3224283.473   4940577.890  -3565688.502
10 0 59301   7062.000000  0    3096173.933   4406251.665  -4304121.011
10 0 59301   7182.000000  0    2904211.061   3798080.628  -4967154.606
10 0 59301   7302.000000  0    2650598.319   3127812.679  -5543265.715
10 0 59301   7422.000000  0    2338814.014   2408198.424  -6022469.575
10 0 59301   7542.000000  0    1973561.305   1652744.217  -6396482.861
10 0 59301   7662.000000  0    1560695.028    875457.557  -6658854.649
10 0 59301   7782.000000  0    1107127.772     90589.942  -6805067.023
10 0 59301   7902.000000  0     620714.116   -687620.012  -6832605.680
10 0 59301   8022.000000  0     110115.978  -1445199.624  -6740997.027
10 0 59301   8142.000000  0    -415347.406  -2168685.637  -6531814.457
10 0 59301   8262.000000  0    -945864.972  -2845357.664  -6208655.957
10 0 59301   8382.000000  0   -1471312.698  -3463459.485  -5777088.741
10 0 59301   8502.000000  0   -1981441.888  -4012402.127  -5244562.819
10 0 59301   8622.000000  0   -2466075.760  -4482948.433  -4620294.821
10 0 59301   8742.000000  0   -2915311.484  -4867375.256  -3915119.596
10 0 59301   8862.000000  0   -3319722.291  -5159607.877  -3141311.132
10 0 59301   8982.000000  0   -3670555.721  -5355324.803  -2312376.147
10 0 59301   9102.000000  0   -3959924.283  -5452030.091  -1442822.022
10 0 59301   9222.000000  0   -4180983.087  -5449090.378   -547902.332
10 0 59301   9342.000000  0   -4328089.178  -5347734.954    356655.161
10 0 59301   9462.000000  0   -4396938.512  -5151018.225   1254932.134
10 0 59301   9582.000000  0   -4384676.768  -4863744.549   2131109.320
10 0 59301   9702.000000  0   -4289980.175  -4492356.888   2969754.257
10 0 59301   9822.000000  0   -4113105.282  -4044793.456   3756100.546
10 0 59301   9942.000000  0   -3855906.485  -3530315.972   4476313.841
10 0 59301  10062.000000  0   -3521820.075  -2959312.836   5117738.257
10 0 59301  10182.000000  0   -3115816.773  -2343084.005   5669117.249
10 0 59301  10302.000000  0   -2644324.342  -1693613.727   6120787.908
10 0 59301  10422.000000  0   -2115121.821  -1023334.305   6464846.553
10 0 59301  10542.000000  0   -1537206.541   -344884.336   6695282.265
10 0 59301  10662.000000  0    -920636.900    329130.674   6808073.640
10 0 59301  10782.000000  0    -276357.273    986370.701   6801253.922
10 0 59301  10902.000000  0     383995.914   1614986.572   6674943.698
10 0 59301  11022.000000  0    1048303.942   2203833.564   6431349.044
10 0 59301  11142.000000  0    1704187.541   2742668.802   6074724.557
10 0 59301  11262.000000  0    2339236.594   3222330.073   5611304.096
10 0 59301  11382.000000  0    2941245.696   3634895.007   5049198.860
10 0 59301  11502.000000  0    3498451.819   3973816.481   4398260.593
10 0 59301  11622.000000  0    3999766.069   4234029.710   3669913.259
10 0 59301  11742.000000  0    4434999.207   4412033.761   2876958.214
10 0 59301  11862.000000  0    4795075.333   4505940.061   2033346.679
10 0 59301  11982.000000  0    5072223.193   4515488.908   1153931.936
10 0 59301  12102.000000  0    5260146.910   4442032.637    254202.091
10 0 59301  12222.000000  0    5354166.818   4288485.169   -650002.021
10 0 59301  12342.000000  0    5351326.916   4059239.365  -1542774.576
10 0 59301  12462.000000  0    5250468.465   3760054.920  -2408432.441
10 0 59301  12582.000000  0    5052267.215   3397919.192  -3231796.802
10 0 59301  12702.000000  0    4759233.677   2980886.383  -3998462.646
10 0 59301  12822.000000  0    4375676.945   2517898.668  -4695051.844
10 0 59301  12942.000000  0    3907633.247   2018592.166  -5309443.098
10 0 59301  13062.000000  0    3362762.583   1493095.047  -5830975.265
10 0 59301  13182.000000  0    2750215.702    951822.272  -6250622.954
10 0 59301  13302.000000  0    2080474.249    405270.520  -6561141.290
10 0 59301  13422.000000  0    1365169.378   -136181.922  -6757179.017
10 0 59301  13542.000000  0     616881.235   -662468.110  -6835362.721
10 0 59301  13662.000000  0    -151080.482  -1164015.581  -6794347.915
10 0 59301  13782.000000  0    -924907.339  -1631915.289  -6634838.323
10 0 59301  13902.000000  0   -1690534.260  -2058075.833  -6359576.190
10 0 59301  14022.000000  0   -2433889.716  -2435361.499  -5973300.081
10 0 59301  14142.000000  0   -3141148.834  -2757710.671  -5482671.655
10 0 59301  14262.000000  0   -3798988.316  -3020234.876  -4896173.089
10 0 59301  14382.000000  0   -4394839.462  -3219296.154  -4223971.707
10 0 59301  14502.000000  0   -4917132.041  -3352559.636  -3477753.758
10 0 59301  14622.000000  0   -5355525.560  -3419021.045  -2670529.714
10 0 59301  14742.000000  0   -5701122.356  -3419007.840  -1816412.176
10 0 59301  14862.000000  0   -5946656.178  -3354153.049   -930370.111
10 0 59301  14982.000000  0   -6086651.988  -3227342.340    -27964.035
10 0 59301  15102.000000  0   -6117552.233  -3042634.905    874932.783
10 0 59301  15222.000000  0   -6037805.932  -2805160.209   1762422.436
10 0 59301  15342.000000  0   -5847915.460  -2520991.885   2618872.495
10 0 59301  15462.000000  0   -5550441.921  -2197003.191   3429198.898
10 0 59301  15582.000000  0   -5149970.100  -1840708.176   4179139.474
10 0 59301  15702.000000  0   -4653030.117  -1460090.526   4855509.314
10 0 59301  15822.000000  0   -4067982.629  -1063427.306   5446431.759
10 0 59301  15942.000000  0   -3404870.909   -659111.470   5941544.907
10 0 59301  16062.000000  0   -2675240.658   -255475.210   6332180.401
10 0 59301  16182.000000  0   -1891931.116    139380.939   6611509.451
10 0 59301  16302.000000  0   -1068844.049    517748.304   6774654.934
10 0 59301  16422.000000  0    -220695.317    872458.715   6818771.145
10 0 59301  16542.000000  0     637248.081   1197019.212   6743089.922
10 0 59301  16662.000000  0    1489441.770   1485730.699   6548933.320
10 0 59301  16782.000000  0    2320344.756   1733788.341   6239691.573
10 0 59301  16902.000000  0    3114702.162   1937361.636   5820767.952
10 0 59301  17022.000000  0    3857827.524   2093653.925   5299490.367
10 0 59301  17142.000000  0    4535877.503   2200939.843   4684988.677
10 0 59301  17262.000000  0    5136114.857   2258581.300   3988041.845
10 0 59301  17382.000000  0    5647158.130   2267020.352   3220893.329
10 0 59301  17502.000000  0    6059205.542   2227747.507   2397034.564
10 0 59301  17622.000000  0    6364231.084   2143248.871   1530967.724
10 0 59301  17742.000000  0    6556149.258   2016931.086    637945.016
10 0 59301  17862.000000  0    6630940.776   1853026.125   -266307.388
10 0 59301  17982.000000  0    6586736.631   1656479.713  -1165875.815
10 0 59301  18102.000000  0    6423858.230   1432824.191  -2044946.735
10 0 59301  18222.000000  0    6144816.564   1188039.911  -2888091.795
10 0 59301  18342.000000  0    5754265.180    928409.139  -3680544.770
10 0 59301  18462.000000  0    5258910.901    660366.580  -4408462.109
10 0 59301  18582.000000  0    4667385.422    390350.028  -5059162.776
10 0 59301  18702.000000  0    3990082.823    124654.750  -5621342.431
10 0 59301  18822.000000  0    3238967.485   -130704.646  -6085260.866
10 0 59301  18942.000000  0    2427355.357   -370122.588  -6442901.023
10 0 59301  19062.000000  0    1569673.888   -588519.041  -6688095.293
10 0 59301  19182.000000  0     681206.998   -781442.004  -6816621.923
10 0 59301  19302.000000  0    -222174.670   -945154.041  -6826270.383
10 0 59301  19422.000000  0   -1124291.115  -1076701.551  -6716874.030
10 0 59301  19542.000000  0   -2008935.775  -1173966.709  -6490313.397
10 0 59301  19662.000000  0   -2860160.655  -1235700.813  -6150486.667
10 0 59301  19782.000000  0   -3662557.031  -1261538.872  -5703249.222
10 0 59301  19902.000000  0   -4401532.328  -1251995.729  -5156324.707
10 0 59301  20022.000000  0   -5063578.058  -1208442.838  -4519182.812
99
